STARLINK-30411          
1 57828U 23138W   24025.70784001  .00028728  00000+0  21320-2 0  9993
2 57828  43.0028 121.2602 0001220 280.1071  79.9634 15.02553511 22221
STARLINK-30418          
1 57829U 23138X   24025.57266777  .00022223  00000+0  16547-2 0  9993
2 57829  43.0040 121.9818 0001172 280.9034  79.1677 15.02542150 22108
STARLINK-30285          
1 57840U 23141A   24025.83876397  .00008649  00000+0  42637-3 0  9990
2 57840  53.0558 273.2926 0001615 123.5568 236.5580 15.18709048 21944
STARLINK-30410          
1 57841U 23141B   24025.02444812  .00006427  00000+0  32064-3 0  9990
2 57841  53.0508 278.1761 0001661 103.2363 256.8817 15.18724912 21798
STARLINK-30435          
1 57842U 23141C   24025.02349064  .00011448  00000+0  55960-3 0  9993
2 57842  53.0513 278.1658 0001290 145.8791 214.2286 15.18683250 21792
STARLINK-30423          
1 57843U 23141D   24025.01841476  .00012802  00000+0  62278-3 0  9992
2 57843  53.0521 278.1268 0001719  72.7154 287.4028 15.18746042 21791
STARLINK-30292          
1 57844U 23141E   24024.92259401  .00001503  00000+0  86700-4 0  9996
2 57844  53.0555 278.2463 0001685 106.0676 254.0504 15.18710872 21789
STARLINK-30419          
1 57845U 23141F   24025.79968673  .00000466  00000+0  37291-4 0  9999
2 57845  53.0542 257.9317 0001326 115.1042 245.0090 15.18726574 22190
STARLINK-30420          
1 57846U 23141G   24025.85867765  .00019050  00000+0  91972-3 0  9991
2 57846  53.0506 270.5536 0000986  96.5835 263.5271 15.18701885 21977
STARLINK-30416          
1 57847U 23141H   24025.82355195  .00043966  00000+0  20937-2 0  9993
2 57847  53.0526 273.1662 0001338  86.0693 274.0455 15.18734696 21930
STARLINK-30426          
1 57848U 23141J   24025.73819451 -.00001854  00000+0 -73132-4 0  9993
2 57848  53.0506 274.7973 0001881 143.0264 217.0860 15.18703501 21907
STARLINK-30430          
1 57849U 23141K   24025.82861642  .00027510  00000+0  13188-2 0  9991
2 57849  53.0535 273.2239 0001164 132.3751 227.7342 15.18731144 21935
STARLINK-30425          
1 57850U 23141L   24025.73725629  .00025944  00000+0  12458-2 0  9995
2 57850  53.0510 274.7851 0001638  94.2994 265.8188 15.18704483 21901
STARLINK-30405          
1 57851U 23141M   24025.00847273  .00004841  00000+0  24520-3 0  9993
2 57851  53.0515 276.6189 0001419  92.3385 267.7772 15.18739020 21817
