[{"OBJECT_NAME":"STARLINK-30411","OBJECT_ID":"2023-138W","EPOCH":"2024-01-25T16:59:17.376864","MEAN_MOTION":15.02553511,"ECCENTRICITY":0.000122,"INCLINATION":43.0028,"RA_OF_ASC_NODE":121.2602,"ARG_OF_PERICENTER":280.1071,"MEAN_ANOMALY":79.9634,"EPHEMERIS_TYPE":0,"CLASSIFICATION_TYPE":"U","NORAD_CAT_ID":57828,"ELEMENT_SET_NO":999,"REV_AT_EPOCH":2222,"BSTAR":0.002132,"MEAN_MOTION_DOT":0.00028728,"MEAN_MOTION_DDOT":0},{"OBJECT_NAME":"STARLINK-30418","OBJECT_ID":"2023-138X","EPOCH":"2024-01-25T13:44:38.495328","MEAN_MOTION":15.0254215,"ECCENTRICITY":0.0001172,"INCLINATION":43.004,"RA_OF_ASC_NODE":121.9818,"ARG_OF_PERICENTER":280.9034,"MEAN_ANOMALY":79.1677,"EPHEMERIS_TYPE":0,"CLASSIFICATION_TYPE":"U","NORAD_CAT_ID":57829,"ELEMENT_SET_NO":999,"REV_AT_EPOCH":2210,"BSTAR":0.0016547,"MEAN_MOTION_DOT":0.00022223,"MEAN_MOTION_DDOT":0},{"OBJECT_NAME":"STARLINK-30285","OBJECT_ID":"2023-141A","EPOCH":"2024-01-25T20:07:49.207008","MEAN_MOTION":15.18709048,"ECCENTRICITY":0.0001615,"INCLINATION":53.0558,"RA_OF_ASC_NODE":273.2926,"ARG_OF_PERICENTER":123.5568,"MEAN_ANOMALY":236.558,"EPHEMERIS_TYPE":0,"CLASSIFICATION_TYPE":"U","NORAD_CAT_ID":57840,"ELEMENT_SET_NO":999,"REV_AT_EPOCH":2194,"BSTAR":0.00042637,"MEAN_MOTION_DOT":8.649e-5,"MEAN_MOTION_DDOT":0},{"OBJECT_NAME":"STARLINK-30410","OBJECT_ID":"2023-141B","EPOCH":"2024-01-25T00:35:12.317568","MEAN_MOTION":15.18724912,"ECCENTRICITY":0.0001661,"INCLINATION":53.0508,"RA_OF_ASC_NODE":278.1761,"ARG_OF_PERICENTER":103.2363,"MEAN_ANOMALY":256.8817,"EPHEMERIS_TYPE":0,"CLASSIFICATION_TYPE":"U","NORAD_CAT_ID":57841,"ELEMENT_SET_NO":999,"REV_AT_EPOCH":2179,"BSTAR":0.00032064,"MEAN_MOTION_DOT":6.427e-5,"MEAN_MOTION_DDOT":0},{"OBJECT_NAME":"STARLINK-30435","OBJECT_ID":"2023-141C","EPOCH":"2024-01-25T00:33:49.591296","MEAN_MOTION":15.1868325,"ECCENTRICITY":0.000129,"INCLINATION":53.0513,"RA_OF_ASC_NODE":278.1658,"ARG_OF_PERICENTER":145.8791,"MEAN_ANOMALY":214.2286,"EPHEMERIS_TYPE":0,"CLASSIFICATION_TYPE":"U","NORAD_CAT_ID":57842,"ELEMENT_SET_NO":999,"REV_AT_EPOCH":2179,"BSTAR":0.0005596,"MEAN_MOTION_DOT":0.00011448,"MEAN_MOTION_DDOT":0},{"OBJECT_NAME":"STARLINK-30423","OBJECT_ID":"2023-141D","EPOCH":"2024-01-25T00:26:31.035264","MEAN_MOTION":15.18746042,"ECCENTRICITY":0.0001719,"INCLINATION":53.0521,"RA_OF_ASC_NODE":278.1268,"ARG_OF_PERICENTER":72.7154,"MEAN_ANOMALY":287.4028,"EPHEMERIS_TYPE":0,"CLASSIFICATION_TYPE":"U","NORAD_CAT_ID":57843,"ELEMENT_SET_NO":999,"REV_AT_EPOCH":2179,"BSTAR":0.00062278,"MEAN_MOTION_DOT":0.00012802,"MEAN_MOTION_DDOT":0},{"OBJECT_NAME":"STARLINK-30292","OBJECT_ID":"2023-141E","EPOCH":"2024-01-24T22:08:32.122464","MEAN_MOTION":15.18710872,"ECCENTRICITY":0.0001685,"INCLINATION":53.0555,"RA_OF_ASC_NODE":278.2463,"ARG_OF_PERICENTER":106.0676,"MEAN_ANOMALY":254.0504,"EPHEMERIS_TYPE":0,"CLASSIFICATION_TYPE":"U","NORAD_CAT_ID":57844,"ELEMENT_SET_NO":999,"REV_AT_EPOCH":2178,"BSTAR":8.67e-5,"MEAN_MOTION_DOT":1.503e-5,"MEAN_MOTION_DDOT":0},{"OBJECT_NAME":"STARLINK-30419","OBJECT_ID":"2023-141F","EPOCH":"2024-01-25T19:11:32.933472","MEAN_MOTION":15.18726574,"ECCENTRICITY":0.0001326,"INCLINATION":53.0542,"RA_OF_ASC_NODE":257.9317,"ARG_OF_PERICENTER":115.1042,"MEAN_ANOMALY":245.009,"EPHEMERIS_TYPE":0,"CLASSIFICATION_TYPE":"U","NORAD_CAT_ID":57845,"ELEMENT_SET_NO":999,"REV_AT_EPOCH":2219,"BSTAR":3.7291e-5,"MEAN_MOTION_DOT":4.66e-6,"MEAN_MOTION_DDOT":0},{"OBJECT_NAME":"STARLINK-30420","OBJECT_ID":"2023-141G","EPOCH":"2024-01-25T20:36:29.748960","MEAN_MOTION":15.18701885,"ECCENTRICITY":9.86e-5,"INCLINATION":53.0506,"RA_OF_ASC_NODE":270.5536,"ARG_OF_PERICENTER":96.5835,"MEAN_ANOMALY":263.5271,"EPHEMERIS_TYPE":0,"CLASSIFICATION_TYPE":"U","NORAD_CAT_ID":57846,"ELEMENT_SET_NO":999,"REV_AT_EPOCH":2197,"BSTAR":0.00091972,"MEAN_MOTION_DOT":0.0001905,"MEAN_MOTION_DDOT":0},{"OBJECT_NAME":"STARLINK-30416","OBJECT_ID":"2023-141H","EPOCH":"2024-01-25T19:45:54.888480","MEAN_MOTION":15.18734696,"ECCENTRICITY":0.0001338,"INCLINATION":53.0526,"RA_OF_ASC_NODE":273.1662,"ARG_OF_PERICENTER":86.0693,"MEAN_ANOMALY":274.0455,"EPHEMERIS_TYPE":0,"CLASSIFICATION_TYPE":"U","NORAD_CAT_ID":57847,"ELEMENT_SET_NO":999,"REV_AT_EPOCH":2193,"BSTAR":0.0020937,"MEAN_MOTION_DOT":0.00043966,"MEAN_MOTION_DDOT":0},{"OBJECT_NAME":"STARLINK-30426","OBJECT_ID":"2023-141J","EPOCH":"2024-01-25T17:43:00.005664","MEAN_MOTION":15.18703501,"ECCENTRICITY":0.0001881,"INCLINATION":53.0506,"RA_OF_ASC_NODE":274.7973,"ARG_OF_PERICENTER":143.0264,"MEAN_ANOMALY":217.086,"EPHEMERIS_TYPE":0,"CLASSIFICATION_TYPE":"U","NORAD_CAT_ID":57848,"ELEMENT_SET_NO":999,"REV_AT_EPOCH":2190,"BSTAR":-7.3132e-5,"MEAN_MOTION_DOT":-1.854e-5,"MEAN_MOTION_DDOT":0},{"OBJECT_NAME":"STARLINK-30430","OBJECT_ID":"2023-141K","EPOCH":"2024-01-25T19:53:12.458688","MEAN_MOTION":15.18731144,"ECCENTRICITY":0.0001164,"INCLINATION":53.0535,"RA_OF_ASC_NODE":273.2239,"ARG_OF_PERICENTER":132.3751,"MEAN_ANOMALY":227.7342,"EPHEMERIS_TYPE":0,"CLASSIFICATION_TYPE":"U","NORAD_CAT_ID":57849,"ELEMENT_SET_NO":999,"REV_AT_EPOCH":2193,"BSTAR":0.0013188,"MEAN_MOTION_DOT":0.0002751,"MEAN_MOTION_DDOT":0},{"OBJECT_NAME":"STARLINK-30425","OBJECT_ID":"2023-141L","EPOCH":"2024-01-25T17:41:38.943456","MEAN_MOTION":15.18704483,"ECCENTRICITY":0.0001638,"INCLINATION":53.051,"RA_OF_ASC_NODE":274.7851,"ARG_OF_PERICENTER":94.2994,"MEAN_ANOMALY":265.8188,"EPHEMERIS_TYPE":0,"CLASSIFICATION_TYPE":"U","NORAD_CAT_ID":57850,"ELEMENT_SET_NO":999,"REV_AT_EPOCH":2190,"BSTAR":0.0012458,"MEAN_MOTION_DOT":0.00025944,"MEAN_MOTION_DDOT":0},{"OBJECT_NAME":"STARLINK-30405","OBJECT_ID":"2023-141M","EPOCH":"2024-01-25T00:12:12.043872","MEAN_MOTION":15.1873902,"ECCENTRICITY":0.0001419,"INCLINATION":53.0515,"RA_OF_ASC_NODE":276.6189,"ARG_OF_PERICENTER":92.3385,"MEAN_ANOMALY":267.7772,"EPHEMERIS_TYPE":0,"CLASSIFICATION_TYPE":"U","NORAD_CAT_ID":57851,"ELEMENT_SET_NO":999,"REV_AT_EPOCH":2181,"BSTAR":0.0002452,"MEAN_MOTION_DOT":4.841e-5,"MEAN_MOTION_DDOT":0}]
